[{"OBJECT_NAME":"NUSAT-48 (HENRIETTA LEAVITT)","OBJECT_ID":"2024-149AG","EPOCH":"2026-03-09T19:19:17.269536","MEAN_MOTION":15.29812597,"ECCENTRICITY":0.00027538,"INCLINATION":97.3923,"RA_OF_ASC_NODE":150.8264,"ARG_OF_PERICENTER":263.3026,"MEAN_ANOMALY":96.7901,"EPHEMERIS_TYPE":0,"CLASSIFICATION_TYPE":"U","NORAD_CAT_ID":60498,"ELEMENT_SET_NO":999,"REV_AT_EPOCH":8694,"BSTAR":0.00045211745,"MEAN_MOTION_DOT":0.00012988,"MEAN_MOTION_DDOT":0},{"OBJECT_NAME":"STARLINK-35303","OBJECT_ID":"2025-223G","EPOCH":"2026-03-09T21:13:56.618976","MEAN_MOTION":15.30208014,"ECCENTRICITY":8.708e-5,"INCLINATION":53.1601,"RA_OF_ASC_NODE":293.4015,"ARG_OF_PERICENTER":102.6986,"MEAN_ANOMALY":257.4112,"EPHEMERIS_TYPE":0,"CLASSIFICATION_TYPE":"U","NORAD_CAT_ID":65860,"ELEMENT_SET_NO":999,"REV_AT_EPOCH":2423,"BSTAR":0.001056968,"MEAN_MOTION_DOT":0.00031084,"MEAN_MOTION_DDOT":0}]
